[{"OBJECT_NAME":"STARLINK-35006","OBJECT_ID":"2025-184M","EPOCH":"2026-03-09T16:56:58.822368","MEAN_MOTION":15.05641481,"ECCENTRICITY":0.00010949,"INCLINATION":97.6016,"RA_OF_ASC_NODE":122.6826,"ARG_OF_PERICENTER":105.9874,"MEAN_ANOMALY":254.1473,"EPHEMERIS_TYPE":0,"CLASSIFICATION_TYPE":"U","NORAD_CAT_ID":65284,"ELEMENT_SET_NO":999,"REV_AT_EPOCH":3130,"BSTAR":0.00013718764,"MEAN_MOTION_DOT":1.919e-5,"MEAN_MOTION_DDOT":0},{"OBJECT_NAME":"CZ-6A DEB","OBJECT_ID":"2024-140NJ","EPOCH":"2026-03-09T15:30:01.982592","MEAN_MOTION":15.1004937,"ECCENTRICITY":0.00567225,"INCLINATION":88.9288,"RA_OF_ASC_NODE":275.3548,"ARG_OF_PERICENTER":176.1403,"MEAN_ANOMALY":184.0287,"EPHEMERIS_TYPE":0,"CLASSIFICATION_TYPE":"U","NORAD_CAT_ID":61092,"ELEMENT_SET_NO":999,"REV_AT_EPOCH":8278,"BSTAR":0.0051635532,"MEAN_MOTION_DOT":0.00088127,"MEAN_MOTION_DDOT":0}]
